QIANFAN-73              
1 63159U 25046A   25336.82883363  .00000047  00000+0  54489-4 0  9995
2 63159  88.9753 321.0492 0015811 146.3660 213.8498 13.50974638 46077
QIANFAN-74              
1 63160U 25046B   25336.81225130  .00000061  00000+0  75166-4 0  9999
2 63160  88.9753 320.9395 0001978  82.1102 278.0273 13.50976793 46131
QIANFAN-75              
1 63161U 25046C   25336.79952110  .00000090  00000+0  12093-3 0  9993
2 63161  88.9755 321.1743 0016815 149.7738 210.4387 13.50980574 46009
QIANFAN-76              
1 63162U 25046D   25336.79606106 -.00000102  00000+0 -17649-3 0  9993
2 63162  88.9751 321.1557 0014338 149.5236 210.6751 13.50962845 46017
QIANFAN-77              
1 63163U 25046E   25336.86646785  .00000185  00000+0  12490-3 0  9997
2 63163  88.9755 319.2360 0016745 108.5353 251.7644 13.96079498 47078
QIANFAN-78              
1 63164U 25046F   25336.76297135  .00000034  00000+0  33972-4 0  9990
2 63164  88.9753 321.0229 0015675 152.1643 208.0350 13.50974764 46089
QIANFAN-79              
1 63165U 25046G   25336.86570995  .00000050  00000+0  58867-4 0  9998
2 63165  88.9757 321.1194 0015424 150.1134 210.0901 13.50976242 46045
QIANFAN-80              
1 63166U 25046H   25336.73407992  .00000114  00000+0  15839-3 0  9993
2 63166  88.9755 320.8401 0014259 154.0235 206.1634 13.50973483 46189
